NORAD_CAT_ID,OBJECT_NAME,OBJECT_TYPE,EPOCH,MEAN_MOTION,ECCENTRICITY,INCLINATION,RA_OF_ASC_NODE,ARG_OF_PERICENTER,MEAN_ANOMALY,BSTAR,MEAN_MOTION_DOT,MEAN_MOTION_DDOT,TLE_LINE0,TLE_LINE1,TLE_LINE2,SEMIMAJOR_AXIS,PERIOD,APOGEE,PERIGEE,DECAYED
52131.0,STARLINK-3711,PAYLOAD,2023-01-15 11:25:37,15.0883587,0.0002266999999999,53.2146,188.1493,55.3791,304.7415,-3.4995e-05,-8.45e-06,0.0,0 STARLINK-3711,1 52131U 22029AV  23015.47612593 -.00000845  00000-0 -34995-4 0  9998,2 52131  53.2146 188.1493 0002267  55.3791 304.7415 15.08835870 47444,6917.893,95.438,541.326,538.19,0.0
52131.0,STARLINK-3711,PAYLOAD,2023-01-15 17:47:09,15.08840214,0.000242,53.2139,186.9575,64.7451,295.3791,-1.5001e-05,-5.27e-06,0.0,0 STARLINK-3711,1 52131U 22029AV  23015.74108312 -.00000527  00000-0 -15001-4 0  9991,2 52131  53.2139 186.9575 0002420  64.7451 295.3791 15.08840214 47485,6917.88,95.438,541.419,538.071,0.0
52131.0,STARLINK-3711,PAYLOAD,2023-01-16 11:16:24,15.08838342,0.0002112,53.2158,183.6881,60.576,299.5442,-2.2731e-05,-6.5e-06,0.0,0 STARLINK-3711,1 52131U 22029AV  23016.46972401 -.00000650  00000-0 -22731-4 0  9994,2 52131  53.2158 183.6881 0002112  60.5760 299.5442 15.08838342 47595,6917.885,95.438,541.212,538.289,0.0
52131.0,STARLINK-3711,PAYLOAD,2023-01-16 14:27:10,15.08839194,0.0002142,53.2158,183.0931,61.5033,298.6175,-1.5507e-05,-5.35e-06,0.0,0 STARLINK-3711,1 52131U 22029AV  23016.60220329 -.00000535  00000-0 -15507-4 0  9990,2 52131  53.2158 183.0931 0002142  61.5033 298.6175 15.08839194 47614,6917.883000000001,95.438,541.23,538.266,0.0
52131.0,STARLINK-3711,PAYLOAD,2023-01-16 20:48:42,15.08841559,0.0002021999999999,53.2164,181.9033,63.4563,296.6636,4.5813000000000004e-07,-2.81e-06,0.0,0 STARLINK-3711,1 52131U 22029AV  23016.86716078 -.00000281  00000-0  45813-6 0  9991,2 52131  53.2164 181.9033 0002022  63.4563 296.6636 15.08841559 47659,6917.876,95.437,541.139,538.342,0.0
52131.0,STARLINK-3711,PAYLOAD,2023-01-17 11:07:11,15.08831276,0.0001939,53.2156,179.227,62.6332,297.4857,-3.001e-05,-7.66e-06,0.0,0 STARLINK-3711,1 52131U 22029AV  23017.46332983 -.00000766  00000-0 -30010-4 0  9997,2 52131  53.2156 179.2270 0001939  62.6332 297.4857 15.08831276 47743,6917.906999999999,95.438,541.113,538.431,0.0
52131.0,STARLINK-3711,PAYLOAD,2023-01-17 17:28:44,15.08834589,0.0001955999999999,53.2153,178.0374,63.3566,296.7627,2.3512e-06,-2.51e-06,0.0,0 STARLINK-3711,1 52131U 22029AV  23017.72828725 -.00000251  00000-0  23512-5 0  9998,2 52131  53.2153 178.0374 0001956  63.3566 296.7627 15.08834589 47789,6917.897,95.438,541.115,538.409,0.0
52131.0,STARLINK-3711,PAYLOAD,2023-01-18 14:08:44,15.08841816,0.0001751,53.2167,174.1729,60.4845,299.6322,2.2652e-05,7.2e-07,0.0,0 STARLINK-3711,1 52131U 22029AV  23018.58940342  .00000072  00000-0  22652-4 0  9996,2 52131  53.2167 174.1729 0001751  60.4845 299.6322 15.08841816 47916,6917.875,95.437,540.951,538.529,0.0
52131.0,STARLINK-3711,PAYLOAD,2023-01-18 17:19:30,15.08846211,0.0001702,53.217,173.5785,59.0,301.116,5.8758e-05,6.47e-06,0.0,0 STARLINK-3711,1 52131U 22029AV  23018.72187900  .00000647  00000-0  58758-4 0  9999,2 52131  53.2170 173.5785 0001702  59.0000 301.1160 15.08846211 47933,6917.861,95.437,540.904,538.549,0.0
52131.0,STARLINK-3711,PAYLOAD,2023-01-19 02:51:49,15.08839171,0.000164,53.2144,171.7932,55.8486,304.2662,2.1661e-05,5.7e-07,0.0,0 STARLINK-3711,1 52131U 22029AV  23019.11932389  .00000057  00000-0  21661-4 0  9990,2 52131  53.2144 171.7932 0001640  55.8486 304.2662 15.08839171 47995,6917.883000000001,95.438,540.882,538.613,0.0
52131.0,STARLINK-3711,PAYLOAD,2023-01-19 10:48:46,15.08823706,0.0001571999999999,53.2161,170.3069,66.84899999999999,293.2668,-7.9244e-05,-1.548e-05,0.0,0 STARLINK-3711,1 52131U 22029AV  23019.45053886 -.00001548  00000-0 -79244-4 0  9991,2 52131  53.2161 170.3069 0001572  66.8490 293.2668 15.08823706 48048,6917.93,95.439,540.883,538.7080000000001,0.0
52131.0,STARLINK-3711,PAYLOAD,2023-01-19 17:10:18,15.08832674,0.0001617,53.22,169.1198,75.9895,284.1277,-1.1043e-05,-4.64e-06,0.0,0 STARLINK-3711,1 52131U 22029AV  23019.71549263 -.00000464  00000-0 -11043-4 0  9998,2 52131  53.2200 169.1198 0001617  75.9895 284.1277 15.08832674 48084,6917.903,95.438,540.886,538.649,0.0
52131.0,STARLINK-3711,PAYLOAD,2023-01-20 09:04:09,15.08841124,0.0001759,53.2189,166.1459,75.3108,284.8079,-2.2947e-05,-6.53e-06,0.0,0 STARLINK-3711,1 52131U 22029AV  23020.37788958 -.00000653  00000-0 -22947-4 0  9993,2 52131  53.2189 166.1459 0001759  75.3108 284.8079 15.08841124 48183,6917.877,95.437,540.9590000000001,538.525,0.0
52131.0,STARLINK-3711,PAYLOAD,2023-01-21 16:51:52,15.08837872,0.0001426,53.2171,160.197,79.3029,280.8124,1.7957e-05,-2e-08,0.0,0 STARLINK-3711,1 52131U 22029AV  23021.70269025 -.00000002  00000-0  17957-4 0  9992,2 52131  53.2171 160.1970 0001426  79.3029 280.8124 15.08837872 48387,6917.887,95.438,540.738,538.765,0.0
52131.0,STARLINK-3711,PAYLOAD,2023-01-22 18:18:01,15.08850172,0.0001393,53.2163,155.4388,82.1077,278.0073,3.7634e-05,3.11e-06,0.0,0 STARLINK-3711,1 52131U 22029AV  23022.76252088  .00000311  00000-0  37634-4 0  9996,2 52131  53.2163 155.4388 0001393  82.1077 278.0073 15.08850172 48544,6917.849,95.437,540.678,538.751,0.0
52131.0,STARLINK-3711,PAYLOAD,2023-01-23 02:14:57,15.08839921,0.0001131,53.2181,153.9555,75.0296,285.0821,-1.123e-05,-4.67e-06,0.0,0 STARLINK-3711,1 52131U 22029AV  23023.09372681 -.00000467  00000-0 -11230-4 0  9993,2 52131  53.2181 153.9555 0001131  75.0296 285.0821 15.08839921 48590,6917.880999999999,95.438,540.528,538.9630000000001,0.0
52131.0,STARLINK-3711,PAYLOAD,2023-01-23 08:36:30,15.08830712,0.0001327,53.2164,152.7649,82.6849,277.4294,2.6974e-05,1.41e-06,0.0,0 STARLINK-3711,1 52131U 22029AV  23023.35869206  .00000141  00000-0  26974-4 0  9994,2 52131  53.2164 152.7649 0001327  82.6849 277.4294 15.08830712 48630,6917.909000000001,95.438,540.692,538.856,0.0
52131.0,STARLINK-3711,PAYLOAD,2023-01-24 11:38:03,15.08843858,0.0001381,53.2156,147.7085,93.2238,266.8912,2.7941e-05,1.57e-06,0.0,0 STARLINK-3711,1 52131U 22029AV  23024.48476364  .00000157  00000-0  27941-4 0  9990,2 52131  53.2156 147.7085 0001381  93.2238 266.8912 15.08843858 48802,6917.869000000001,95.437,540.689,538.778,0.0
52131.0,STARLINK-3711,PAYLOAD,2023-01-25 11:28:51,15.0882946,0.0001169,53.2173,143.2476,114.2838,245.8276,-3.4414e-05,-8.35e-06,0.0,0 STARLINK-3711,1 52131U 22029AV  23025.47837563 -.00000835  00000-0 -34414-4 0  9990,2 52131  53.2173 143.2476 0001169 114.2838 245.8276 15.08829460 48959,6917.9130000000005,95.438,540.586,538.969,0.0
52131.0,STARLINK-3711,PAYLOAD,2023-01-25 14:39:37,15.08833005,0.0001082,53.2162,142.653,105.2004,254.9108,-1.0502e-05,-4.55e-06,0.0,0 STARLINK-3711,1 52131U 22029AV  23025.61085333 -.00000455  00000-0 -10502-4 0  9996,2 52131  53.2162 142.6530 0001082 105.2004 254.9108 15.08833005 48977,6917.901999999999,95.438,540.515,539.018,0.0
52131.0,STARLINK-3711,PAYLOAD,2023-01-26 11:19:40,15.08820409,0.0001146,53.2174,138.78799999999998,97.774,262.3382,-0.00020178,-3.496e-05,0.0,0 STARLINK-3711,1 52131U 22029AV  23026.47199389 -.00003496  00000-0 -20178-3 0  9995,2 52131  53.2174 138.7880 0001146  97.7740 262.3382 15.08820409 49104,6917.94,95.439,540.5980000000001,539.012,0.0
52131.0,STARLINK-3711,PAYLOAD,2023-01-26 12:55:03,15.088212900000002,0.0001176,53.2172,138.4904,98.6953,261.4172,-0.00019123,-3.328e-05,0.0,0 STARLINK-3711,1 52131U 22029AV  23026.53823370 -.00003328  00000-0 -19123-3 0  9998,2 52131  53.2172 138.4904 0001176  98.6953 261.4172 15.08821290 49112,6917.938,95.439,540.616,538.989,0.0
52131.0,STARLINK-3711,PAYLOAD,2023-01-27 00:02:44,15.08834939,0.0001224,53.2184,136.4095,85.7247,274.3885,-0.0001093,-2.027e-05,0.0,0 STARLINK-3711,1 52131U 22029AV  23027.00190611 -.00002027  00000-0 -10930-3 0  9998,2 52131  53.2184 136.4095 0001224  85.7247 274.3885 15.08834939 49186,6917.896,95.438,540.6080000000001,538.914,0.0
52131.0,STARLINK-3711,PAYLOAD,2023-01-27 09:35:02,15.08841686,9.79e-05,53.2158,134.6238,94.485,265.6254,0.00013355,1.838e-05,0.0,0 STARLINK-3711,1 52131U 22029AV  23027.39933528  .00001838  00000-0  13355-3 0  9993,2 52131  53.2158 134.6238 0000979  94.4850 265.6254 15.08841686 49246,6917.875,95.437,540.4169999999999,539.063,0.0
52131.0,STARLINK-3711,PAYLOAD,2023-01-27 14:21:11,15.08848725,9.22e-05,53.2156,133.7318,89.906,270.2038,0.00017396,2.483e-05,0.0,0 STARLINK-3711,1 52131U 22029AV  23027.59804904  .00002483  00000-0  17396-3 0  9996,2 52131  53.2156 133.7318 0000922  89.9060 270.2038 15.08848725 49279,6917.854,95.437,540.357,539.081,0.0
52131.0,STARLINK-3711,PAYLOAD,2023-01-27 23:53:30,15.08842764,8.18e-05,53.2155,131.9485,102.89,257.2184,9.9684e-05,1.299e-05,0.0,0 STARLINK-3711,1 52131U 22029AV  23027.99549381  .00001299  00000-0  99684-4 0  9990,2 52131  53.2155 131.9485 0000818 102.8900 257.2184 15.08842764 49336,6917.871999999999,95.437,540.303,539.1709999999999,0.0
52131.0,STARLINK-3711,PAYLOAD,2023-01-28 12:36:36,15.08832712,0.0001329,53.2177,129.5695,95.8859,264.2285,0.000148,2.068e-05,0.0,0 STARLINK-3711,1 52131U 22029AV  23028.52542170  .00002068  00000-0  14800-3 0  9990,2 52131  53.2177 129.5695 0001329  95.8859 264.2285 15.08832712 49419,6917.903,95.438,540.687,538.848,0.0
52131.0,STARLINK-3711,PAYLOAD,2023-01-28 15:47:22,15.0883466,0.00011,53.2165,128.9742,89.6954,270.4165,0.00018477,2.654e-05,0.0,0 STARLINK-3711,1 52131U 22029AV  23028.65789880  .00002654  00000-0  18477-3 0  9990,2 52131  53.2165 128.9742 0001100  89.6954 270.4165 15.08834660 49438,6917.897,95.438,540.523,539.001,0.0
52131.0,STARLINK-3711,PAYLOAD,2023-01-29 15:38:10,15.08844128,0.0001339,53.2162,124.5151,66.0797,294.0336,-0.00013791,-2.482e-05,0.0,0 STARLINK-3711,1 52131U 22029AV  23029.65150606 -.00002482  00000-0 -13791-3 0  9994,2 52131  53.2162 124.5151 0001339  66.0797 294.0336 15.08844128 49587,6917.868,95.437,540.659,538.806,0.0
